[{"OBJECT_NAME":"ICEYE-X40","OBJECT_ID":"2024-149CK","EPOCH":"2026-03-09T18:13:16.348800","MEAN_MOTION":14.97556326,"ECCENTRICITY":0.00059832,"INCLINATION":97.6865,"RA_OF_ASC_NODE":146.8579,"ARG_OF_PERICENTER":65.2061,"MEAN_ANOMALY":294.9783,"EPHEMERIS_TYPE":0,"CLASSIFICATION_TYPE":"U","NORAD_CAT_ID":60549,"ELEMENT_SET_NO":999,"REV_AT_EPOCH":8519,"BSTAR":0.00028351559,"MEAN_MOTION_DOT":3.253e-5,"MEAN_MOTION_DDOT":0},{"OBJECT_NAME":"STARLINK-34301","OBJECT_ID":"2025-126F","EPOCH":"2026-03-09T22:58:14.561472","MEAN_MOTION":14.98349125,"ECCENTRICITY":0.00029288,"INCLINATION":70.0029,"RA_OF_ASC_NODE":33.715,"ARG_OF_PERICENTER":272.8168,"MEAN_ANOMALY":87.2656,"EPHEMERIS_TYPE":0,"CLASSIFICATION_TYPE":"U","NORAD_CAT_ID":64349,"ELEMENT_SET_NO":999,"REV_AT_EPOCH":4072,"BSTAR":0.0008648725,"MEAN_MOTION_DOT":0.00010247,"MEAN_MOTION_DDOT":0}]
